NORAD_CAT_ID,OBJECT_NAME,OBJECT_TYPE,EPOCH,MEAN_MOTION,ECCENTRICITY,INCLINATION,RA_OF_ASC_NODE,ARG_OF_PERICENTER,MEAN_ANOMALY,BSTAR,MEAN_MOTION_DOT,MEAN_MOTION_DDOT,TLE_LINE0,TLE_LINE1,TLE_LINE2,SEMIMAJOR_AXIS,PERIOD,APOGEE,PERIGEE,DECAYED
56816.0,STARLINK-6067,PAYLOAD,2023-06-21 12:25:49,15.69924986,0.0003617,70.0009,353.5586,273.1815,86.8967,0.00012625,0.00014996,0.0,0 STARLINK-6067,1 56816U 23078BB  23172.51793763  .00014996  00000-0  12625-3 0  9990,2 56816  70.0009 353.5586 0003617 273.1815  86.8967 15.69924986  3649,6737.249,91.724,361.55,356.677,0.0
56816.0,STARLINK-6067,PAYLOAD,2023-06-21 13:57:34,15.69932679,0.0003608,70.001,353.3795,272.6664,87.4119,0.0001917,0.0002291,0.0,0 STARLINK-6067,1 56816U 23078BB  23172.58165372  .00022910  00000-0  19170-3 0  9993,2 56816  70.0010 353.3795 0003608 272.6664  87.4119 15.69932679  3393,6737.227,91.724,361.522,356.661,0.0
56816.0,STARLINK-6067,PAYLOAD,2023-06-21 18:32:50,15.69953476,0.0003585,70.0011,352.842,273.1554,86.9231,0.0003282,0.00039486,0.0,0 STARLINK-6067,1 56816U 23078BB  23172.77280123  .00039486  00000-0  32820-3 0  9999,2 56816  70.0011 352.8420 0003585 273.1554  86.9231 15.69953476  3680,6737.167,91.722,361.447,356.617,0.0
56816.0,STARLINK-6067,PAYLOAD,2023-06-21 20:04:35,15.69956038,0.0003619,70.0013,352.6626,271.5512,88.527,0.00047639,0.00057542,0.0,0 STARLINK-6067,1 56816U 23078BB  23172.83651740  .00057542  00000-0  47639-3 0  9990,2 56816  70.0013 352.6626 0003619 271.5512  88.5270 15.69956038  3433,6737.16,91.722,361.463,356.587,0.0
56816.0,STARLINK-6067,PAYLOAD,2023-06-22 00:39:50,15.69944083,0.0003705,70.0014,352.1252,274.9453,85.1319,0.00034285,0.00041252,0.0,0 STARLINK-6067,1 56816U 23078BB  23173.02766807  .00041252  00000-0  34285-3 0  9997,2 56816  70.0014 352.1252 0003705 274.9453  85.1319 15.69944083  3727,6737.194,91.723,361.555,356.563,0.0
56816.0,STARLINK-6067,PAYLOAD,2023-06-22 05:15:06,15.69888754,0.0003813,70.0012,351.5878,271.7342,88.3417,0.00021255,0.00025387,0.0,0 STARLINK-6067,1 56816U 23078BB  23173.21882509  .00025387  00000-0  21255-3 0  9990,2 56816  70.0012 351.5878 0003813 271.7342  88.3417 15.69888754  3753,6737.352,91.726,361.786,356.648,0.0
56816.0,STARLINK-6067,PAYLOAD,2023-06-22 14:25:37,15.69915669,0.0003822,70.0009,350.513,271.4421,88.6337,0.00055308,0.00066804,0.0,0 STARLINK-6067,1 56816U 23078BB  23173.60113163  .00066804  00000-0  55308-3 0  9991,2 56816  70.0009 350.5130 0003822 271.4421  88.6337 15.69915669  3811,6737.275,91.725,361.715,356.565,0.0
56816.0,STARLINK-6067,PAYLOAD,2023-06-23 14:53:38,15.69925154,0.0003463,70.0012,347.6467,265.868,94.212,0.00048434,0.00058435,0.0,0 STARLINK-6067,1 56816U 23078BB  23174.62058965  .00058435  00000-0  48434-3 0  9995,2 56816  70.0012 347.6467 0003463 265.8680  94.2120 15.69925154  3970,6737.248,91.724,361.446,356.78,0.0
56816.0,STARLINK-6067,PAYLOAD,2023-06-23 21:00:39,15.69937842,0.0003807,70.0016,346.9298,284.9233,75.1541,0.0004198,0.00050603,0.0,0 STARLINK-6067,1 56816U 23078BB  23174.87545865  .00050603  00000-0  41980-3 0  9990,2 56816  70.0016 346.9298 0003807 284.9233  75.1541 15.69937842  4014,6737.212,91.723,361.642,356.512,0.0
56816.0,STARLINK-6067,PAYLOAD,2023-06-24 04:39:25,15.69946892,0.0003791,70.0008,346.0352,272.9376,87.1385,0.00030075,0.00036143,0.0,0 STARLINK-6067,1 56816U 23078BB  23175.19403982  .00036143  00000-0  30075-3 0  9995,2 56816  70.0008 346.0352 0003791 272.9376  87.1385 15.69946892  4063,6737.186,91.723,361.605,356.497,0.0
56816.0,STARLINK-6067,PAYLOAD,2023-06-24 15:21:40,15.69927807,0.0004746,69.9995,344.7807,269.9553,90.1099,0.00028485,0.00034193,0.0,0 STARLINK-6067,1 56816U 23078BB  23175.64005513  .00034193  00000-0  28485-3 0  9998,2 56816  69.9995 344.7807 0004746 269.9553  90.1099 15.69927807  4138,6737.241,91.724,362.303,355.908,0.0
56816.0,STARLINK-6067,PAYLOAD,2023-06-24 23:00:26,15.69936071,0.0003976,69.9999,343.8857,269.5479,90.5261,7.6451e-05,8.995e-05,0.0,0 STARLINK-6067,1 56816U 23078BB  23175.95863762  .00008995  00000-0  76451-4 0  9998,2 56816  69.9999 343.8857 0003976 269.5479  90.5261 15.69936071  4187,6737.217,91.723,361.761,356.403,0.0
56816.0,STARLINK-6067,PAYLOAD,2023-06-25 06:39:12,15.69924044,0.0003765,70.0003,342.99,275.1979,84.8786,6.118e-06,5.23e-06,0.0,0 STARLINK-6067,1 56816U 23078BB  23176.27722491  .00000523  00000-0  61180-5 0  9990,2 56816  70.0003 342.9900 0003765 275.1979  84.8786 15.69924044  4230,6737.251,91.724,361.653,356.58,0.0
56816.0,STARLINK-6067,PAYLOAD,2023-06-25 17:21:27,15.69935822,0.0003948,70.0,341.7346,269.0187,91.0556,4.2793e-05,4.939e-05,0.0,0 STARLINK-6067,1 56816U 23078BB  23176.72323706  .00004939  00000-0  42793-4 0  9999,2 56816  70.0000 341.7346 0003948 269.0187  91.0556 15.69935822  4303,6737.218,91.723,361.742,356.423,0.0
56816.0,STARLINK-6067,PAYLOAD,2023-06-26 10:10:44,15.69916432,0.0003989,69.9992,339.7647,268.4116,91.6623,-2.8572e-06,-5.57e-06,0.0,0 STARLINK-6067,1 56816U 23078BB  23177.42412915 -.00000557  00000-0 -28572-5 0  9992,2 56816  69.9992 339.7647 0003989 268.4116  91.6623 15.69916432  4410,6737.273,91.725,361.826,356.451,0.0
56816.0,STARLINK-6067,PAYLOAD,2023-06-26 20:52:59,15.69934275,0.0004002,69.9985,338.5091,263.7437,96.3303,3.0758e-05,3.489e-05,0.0,0 STARLINK-6067,1 56816U 23078BB  23177.87013736  .00003489  00000-0  30758-4 0  9992,2 56816  69.9985 338.5091 0004002 263.7437  96.3303 15.69934275  4482,6737.222,91.724,361.783,356.391,0.0
56816.0,STARLINK-6067,PAYLOAD,2023-06-27 18:17:31,15.69934292,0.0003781,69.9986,336.0011,267.5222,92.5541,2.1649e-05,2.392e-05,0.0,0 STARLINK-6067,1 56816U 23078BB  23178.76217152  .00002392  00000-0  21649-4 0  9990,2 56816  69.9986 336.0011 0003781 267.5222  92.5541 15.69934292  4622,6737.222,91.724,361.634,356.54,0.0
56816.0,STARLINK-6067,PAYLOAD,2023-06-28 09:35:03,15.6991885,0.0003673,69.9981,334.2103,271.8693,88.2082,4.4133e-06,3.18e-06,0.0,0 STARLINK-6067,1 56816U 23078BB  23179.39934800  .00000318  00000-0  44133-5 0  9996,2 56816  69.9981 334.2103 0003673 271.8693  88.2082 15.69918850  4724,6737.266,91.724,361.606,356.657,0.0
56816.0,STARLINK-6067,PAYLOAD,2023-06-28 17:13:48,15.69933407,0.00036,69.9986,333.3149,272.0031,88.0752,2.461e-05,2.748e-05,0.0,0 STARLINK-6067,1 56816U 23078BB  23179.71792544  .00002748  00000-0  24610-4 0  9995,2 56816  69.9986 333.3149 0003600 272.0031  88.0752 15.69933407  4770,6737.225,91.724,361.515,356.664,0.0
56816.0,STARLINK-6067,PAYLOAD,2023-06-29 11:34:50,15.69932895,0.0003269,69.9992,331.1673,262.9543,97.1281,2.2318e-05,2.473e-05,0.0,0 STARLINK-6067,1 56816U 23078BB  23180.48252629  .00002473  00000-0  22318-4 0  9994,2 56816  69.9992 331.1673 0003269 262.9543  97.1281 15.69932895  4893,6737.226,91.724,361.293,356.889,0.0
56816.0,STARLINK-6067,PAYLOAD,2023-06-30 19:41:37,15.69932753,0.0003976,69.9987,327.4026,271.5264,88.5476,4.3414e-05,5.013e-05,0.0,0 STARLINK-6067,1 56816U 23078BB  23181.82057740  .00005013  00000-0  43414-4 0  9993,2 56816  69.9987 327.4026 0003976 271.5264  88.5476 15.69932753  5106,6737.226,91.724,361.77,356.413,0.0
56816.0,STARLINK-6067,PAYLOAD,2023-07-01 03:20:23,15.69924963,0.0003992,69.9992,326.5065,272.5999,87.4739,6.0217e-05,7.035e-05,0.0,0 STARLINK-6067,1 56816U 23078BB  23182.13916360  .00007035  00000-0  60217-4 0  9996,2 56816  69.9992 326.5065 0003992 272.5999  87.4739 15.69924963  5158,6737.249,91.724,361.803,356.424,0.0
56816.0,STARLINK-6067,PAYLOAD,2023-07-02 09:55:26,15.69926805,0.0003909,69.9993,322.9239,270.9589,89.1159,2.1418e-05,2.364e-05,0.0,0 STARLINK-6067,1 56816U 23078BB  23183.41349855  .00002364  00000-0  21418-4 0  9997,2 56816  69.9993 322.9239 0003909 270.9589  89.1159 15.69926805  5351,6737.243,91.724,361.742,356.475,0.0
56816.0,STARLINK-6067,PAYLOAD,2023-07-03 08:51:43,15.69916912,0.0003817,69.9996,320.2361,267.5029,92.573,-1.311e-05,-1.789e-05,0.0,0 STARLINK-6067,1 56816U 23078BB  23184.36925189 -.00001789  00000-0 -13110-4 0  9994,2 56816  69.9996 320.2361 0003817 267.5029  92.5730 15.69916912  5508,6737.272,91.725,361.708,356.565,0.0
56816.0,STARLINK-6067,PAYLOAD,2023-07-03 16:30:28,15.69932561,0.0003879,69.9996,319.3405,269.0222,91.0529,0.00011156,0.00013228,0.0,0 STARLINK-6067,1 56816U 23078BB  23184.68783266  .00013228  00000-0  11156-3 0  9993,2 56816  69.9996 319.3405 0003879 269.0222  91.0529 15.69932561  5559,6737.227,91.724,361.705,356.479,0.0
56816.0,STARLINK-6067,PAYLOAD,2023-07-03 22:37:29,15.69922395,0.0003888,69.9996,318.6239,271.2094,88.8656,2.9786e-05,3.37e-05,0.0,0 STARLINK-6067,1 56816U 23078BB  23184.94270084  .00003370  00000-0  29786-4 0  9997,2 56816  69.9996 318.6239 0003888 271.2094  88.8656 15.69922395  5591,6737.256,91.724,361.74,356.502,0.0
56816.0,STARLINK-6067,PAYLOAD,2023-07-04 23:05:31,15.6992021,0.000387,69.999,315.7569,271.478,88.5973,9.276e-07,-1.02e-06,0.0,0 STARLINK-6067,1 56816U 23078BB  23185.96216967 -.00000102  00000-0  92760-6 0  9995,2 56816  69.9990 315.7569 0003870 271.4780  88.5973 15.69920210  5755,6737.262,91.724,361.735,356.52,0.0
56816.0,STARLINK-6067,PAYLOAD,2023-07-05 17:26:32,15.69941221,0.0003808,69.9996,313.6071,271.2662,88.8097,9.438e-05,0.00011159,0.0,0 STARLINK-6067,1 56816U 23078BB  23186.72676681  .00011159  00000-0  94380-4 0  9994,2 56816  69.9996 313.6071 0003808 271.2662  88.8097 15.69941221  5872,6737.202,91.723,361.633,356.502,0.0
56816.0,STARLINK-6067,PAYLOAD,2023-07-06 02:37:03,15.69939028,0.0003726,69.9996,312.5322,272.394,87.6829,0.00016852,0.00020113,0.0,0 STARLINK-6067,1 56816U 23078BB  23187.10906966  .00020113  00000-0  16852-3 0  9996,2 56816  69.9996 312.5322 0003726 272.3940  87.6829 15.69939028  5938,6737.208,91.723,361.584,356.563,0.0
56816.0,STARLINK-6067,PAYLOAD,2023-07-06 19:26:19,15.69929319,0.0003792,69.9994,310.5615,272.672,87.4041,2.7342e-05,3.077e-05,0.0,0 STARLINK-6067,1 56816U 23078BB  23187.80995177  .00003077  00000-0  27342-4 0  9992,2 56816  69.9994 310.5615 0003792 272.6720  87.4041 15.69929319  6040,6737.236,91.724,361.656,356.546,0.0
